start=new Date('2022-04-12T00:00:00.000Z').valueOf();
sats=[{"TLE_LINE2":"2 46776  53.0579 250.2461 0002262  35.2101 324.9053 15.42145945 81482","ECCENTRICITY":"0.00022620","APOAPSIS":"441.321","MEAN_MOTION":"15.42145945","MEAN_ELEMENT_THEORY":"SGP4","PERIOD":"93.376","OBJECT_ID":"2020-074AP","ARG_OF_PERICENTER":"35.2101","EPOCH":"2022-04-11T20:01:49.151424","CLASSIFICATION_TYPE":"U","MEAN_MOTION_DOT":"-0.00000124","RCS_SIZE":"LARGE","OBJECT_NAME":"STARLINK-1946","REV_AT_EPOCH":"8148","LAUNCH_DATE":"2020-10-24","PERIAPSIS":"438.237","SEMIMAJOR_AXIS":"6817.914","MEAN_ANOMALY":"324.9053","INCLINATION":"53.0579","COUNTRY_CODE":"US","DECAY_DATE":null,"FILE":"3397723","CENTER_NAME":"EARTH","GP_ID":"201015766","REF_FRAME":"TEME","SITE":"AFETR","TLE_LINE1":"1 46776U 20074AP  22101.83459666 -.00000124  00000-0  66391-5 0  9994","RA_OF_ASC_NODE":"250.2461","EPHEMERIS_TYPE":"0","OBJECT_TYPE":"PAYLOAD","BSTAR":"0.00000663910000","ELEMENT_SET_NO":"999","TIME_SYSTEM":"UTC","NORAD_CAT_ID":"46776","MEAN_MOTION_DDOT":"0.0000000000000"},{"CENTER_NAME":"EARTH","GP_ID":"201016016","TLE_LINE1":"1 46779U 20074AS  22101.79187259  .00002308  00000-0  17380-3 0  9995","SITE":"AFETR","REF_FRAME":"TEME","PERIAPSIS":"546.021","SEMIMAJOR_AXIS":"6925.351","FILE":"3397723","DECAY_DATE":null,"COUNTRY_CODE":"US","MEAN_ANOMALY":"312.0273","INCLINATION":"53.0542","BSTAR":"0.00017380000000","OBJECT_TYPE":"PAYLOAD","EPHEMERIS_TYPE":"0","MEAN_MOTION_DDOT":"0.0000000000000","NORAD_CAT_ID":"46779","ELEMENT_SET_NO":"999","TIME_SYSTEM":"UTC","RA_OF_ASC_NODE":"241.7012","EPOCH":"2022-04-11T19:00:17.791776","APOAPSIS":"548.412","ECCENTRICITY":"0.00017260","TLE_LINE2":"2 46779  53.0542 241.7012 0001726  48.0863 312.0273 15.06399054 81599","OBJECT_ID":"2020-074AS","ARG_OF_PERICENTER":"48.0863","PERIOD":"95.592","MEAN_ELEMENT_THEORY":"SGP4","MEAN_MOTION":"15.06399054","REV_AT_EPOCH":"8159","OBJECT_NAME":"STARLINK-1798","RCS_SIZE":"LARGE","LAUNCH_DATE":"2020-10-24","MEAN_MOTION_DOT":"0.00002308","CLASSIFICATION_TYPE":"U"},{"EPOCH":"2022-04-11T18:44:23.479584","ECCENTRICITY":"0.00017330","APOAPSIS":"548.467","TLE_LINE2":"2 46780  53.0567 241.7613 0001733  56.2008 303.9146 15.06382768 81597","MEAN_ELEMENT_THEORY":"SGP4","PERIOD":"95.593","OBJECT_ID":"2020-074AT","ARG_OF_PERICENTER":"56.2008","MEAN_MOTION":"15.06382768","REV_AT_EPOCH":"8159","RCS_SIZE":"LARGE","OBJECT_NAME":"STARLINK-1832","LAUNCH_DATE":"2020-10-24","CLASSIFICATION_TYPE":"U","MEAN_MOTION_DOT":"0.00000952","CENTER_NAME":"EARTH","GP_ID":"201016768","TLE_LINE1":"1 46780U 20074AT  22101.78082731  .00000952  00000-0  82826-4 0  9996","REF_FRAME":"TEME","SITE":"AFETR","PERIAPSIS":"546.066","SEMIMAJOR_AXIS":"6925.401","DECAY_DATE":null,"FILE":"3397723","INCLINATION":"53.0567","MEAN_ANOMALY":"303.9146","COUNTRY_CODE":"US","BSTAR":"0.00008282600000","EPHEMERIS_TYPE":"0","OBJECT_TYPE":"PAYLOAD","TIME_SYSTEM":"UTC","ELEMENT_SET_NO":"999","MEAN_MOTION_DDOT":"0.0000000000000","NORAD_CAT_ID":"46780","RA_OF_ASC_NODE":"241.7613"},{"ELEMENT_SET_NO":"999","TIME_SYSTEM":"UTC","MEAN_MOTION_DDOT":"0.0000000000000","NORAD_CAT_ID":"46781","EPHEMERIS_TYPE":"0","OBJECT_TYPE":"PAYLOAD","BSTAR":"0.00019729000000","RA_OF_ASC_NODE":"251.6777","REF_FRAME":"TEME","SITE":"AFETR","TLE_LINE1":"1 46781U 20074AU  22101.79832279  .00002659  00000-0  19729-3 0  9995","CENTER_NAME":"EARTH","GP_ID":"201017518","MEAN_ANOMALY":"305.7320","INCLINATION":"53.0538","COUNTRY_CODE":"US","DECAY_DATE":null,"FILE":"3397723","SEMIMAJOR_AXIS":"6925.330","PERIAPSIS":"545.977","LAUNCH_DATE":"2020-10-24","RCS_SIZE":"LARGE","OBJECT_NAME":"STARLINK-1834","REV_AT_EPOCH":"8146","CLASSIFICATION_TYPE":"U","MEAN_MOTION_DOT":"0.00002659","EPOCH":"2022-04-11T19:09:35.089056","MEAN_MOTION":"15.06405904","PERIOD":"95.592","MEAN_ELEMENT_THEORY":"SGP4","OBJECT_ID":"2020-074AU","ARG_OF_PERICENTER":"54.3833","TLE_LINE2":"2 46781  53.0538 251.6777 0001759  54.3833 305.7320 15.06405904 81468","ECCENTRICITY":"0.00017590","APOAPSIS":"548.414"},{"RA_OF_ASC_NODE":"241.4935","BSTAR":"-0.00004235100000","EPHEMERIS_TYPE":"0","OBJECT_TYPE":"PAYLOAD","TIME_SYSTEM":"UTC","ELEMENT_SET_NO":"999","MEAN_MOTION_DDOT":"0.0000000000000","NORAD_CAT_ID":"46782","PERIAPSIS":"545.978","SEMIMAJOR_AXIS":"6925.367","DECAY_DATE":null,"FILE":"3397723","MEAN_ANOMALY":"308.6404","INCLINATION":"53.0539","COUNTRY_CODE":"US","CENTER_NAME":"EARTH","GP_ID":"201016266","TLE_LINE1":"1 46782U 20074AV  22101.83610471 -.00000912  00000-0 -42351-4 0  9999","REF_FRAME":"TEME","SITE":"AFETR","CLASSIFICATION_TYPE":"U","MEAN_MOTION_DOT":"-0.00000912","REV_AT_EPOCH":"8160","RCS_SIZE":"LARGE","OBJECT_NAME":"STARLINK-1835","LAUNCH_DATE":"2020-10-24","ECCENTRICITY":"0.00018110","APOAPSIS":"548.486","TLE_LINE2":"2 46782  53.0539 241.4935 0001811  51.4747 308.6404 15.06394005 81604","PERIOD":"95.593","MEAN_ELEMENT_THEORY":"SGP4","ARG_OF_PERICENTER":"51.4747","OBJECT_ID":"2020-074AV","MEAN_MOTION":"15.06394005","EPOCH":"2022-04-11T20:03:59.446944"},{"RCS_SIZE":"LARGE","OBJECT_NAME":"STARLINK-1851","REV_AT_EPOCH":"8159","LAUNCH_DATE":"2020-10-24","CLASSIFICATION_TYPE":"U","MEAN_MOTION_DOT":"0.00001250","EPOCH":"2022-04-11T18:49:41.549952","TLE_LINE2":"2 46783  53.0550 241.7383 0001676  61.8641 298.2518 15.06389281 81593","ECCENTRICITY":"0.00016760","APOAPSIS":"548.407","MEAN_MOTION":"15.06389281","MEAN_ELEMENT_THEORY":"SGP4","PERIOD":"95.593","ARG_OF_PERICENTER":"61.8641","OBJECT_ID":"2020-074AW","EPHEMERIS_TYPE":"0","OBJECT_TYPE":"PAYLOAD","BSTAR":"0.00010280000000","ELEMENT_SET_NO":"999","TIME_SYSTEM":"UTC","MEAN_MOTION_DDOT":"0.0000000000000","NORAD_CAT_ID":"46783","RA_OF_ASC_NODE":"241.7383","CENTER_NAME":"EARTH","GP_ID":"201016516","REF_FRAME":"TEME","SITE":"AFETR","TLE_LINE1":"1 46783U 20074AW  22101.78450868  .00001250  00000-0  10280-3 0  9995","SEMIMAJOR_AXIS":"6925.381","PERIAPSIS":"546.086","MEAN_ANOMALY":"298.2518","INCLINATION":"53.0550","COUNTRY_CODE":"US","DECAY_DATE":null,"FILE":"3397723"},{"SITE":"AFETR","REF_FRAME":"TEME","TLE_LINE1":"1 46784U 20074AX  22101.78818966  .00001637  00000-0  12879-3 0  9998","CENTER_NAME":"EARTH","GP_ID":"201017268","COUNTRY_CODE":"US","INCLINATION":"53.0542","MEAN_ANOMALY":"291.2601","FILE":"3397723","DECAY_DATE":null,"SEMIMAJOR_AXIS":"6925.358","PERIAPSIS":"546.216","MEAN_MOTION_DDOT":"0.0000000000000","NORAD_CAT_ID":"46784","TIME_SYSTEM":"UTC","ELEMENT_SET_NO":"999","OBJECT_TYPE":"PAYLOAD","EPHEMERIS_TYPE":"0","BSTAR":"0.00012879000000","RA_OF_ASC_NODE":"241.7259","EPOCH":"2022-04-11T18:54:59.586624","MEAN_MOTION":"15.06397045","OBJECT_ID":"2020-074AX","ARG_OF_PERICENTER":"68.8544","PERIOD":"95.592","MEAN_ELEMENT_THEORY":"SGP4","TLE_LINE2":"2 46784  53.0542 241.7259 0001454  68.8544 291.2601 15.06397045 81593","APOAPSIS":"548.230","ECCENTRICITY":"0.00014540","LAUNCH_DATE":"2020-10-24","OBJECT_NAME":"STARLINK-1882","RCS_SIZE":"LARGE","REV_AT_EPOCH":"8159","MEAN_MOTION_DOT":"0.00001637","CLASSIFICATION_TYPE":"U"},{"ECCENTRICITY":"0.00014420","APOAPSIS":"548.240","TLE_LINE2":"2 46785  53.0544 241.4888 0001442  74.7210 285.3938 15.06390895 81609","MEAN_ELEMENT_THEORY":"SGP4","PERIOD":"95.593","OBJECT_ID":"2020-074AY","ARG_OF_PERICENTER":"74.7210","MEAN_MOTION":"15.06390895","EPOCH":"2022-04-11T20:09:18.122112","CLASSIFICATION_TYPE":"U","MEAN_MOTION_DOT":"0.00001279","REV_AT_EPOCH":"8160","RCS_SIZE":"LARGE","OBJECT_NAME":"STARLINK-1883","LAUNCH_DATE":"2020-10-24","SEMIMAJOR_AXIS":"6925.376","PERIAPSIS":"546.243","DECAY_DATE":null,"FILE":"3397723","INCLINATION":"53.0544","MEAN_ANOMALY":"285.3938","COUNTRY_CODE":"US","GP_ID":"201017019","CENTER_NAME":"EARTH","TLE_LINE1":"1 46785U 20074AY  22101.83979308  .00001279  00000-0  10480-3 0  9991","REF_FRAME":"TEME","SITE":"AFETR","RA_OF_ASC_NODE":"241.4888","BSTAR":"0.00010480000000","EPHEMERIS_TYPE":"0","OBJECT_TYPE":"PAYLOAD","ELEMENT_SET_NO":"999","TIME_SYSTEM":"UTC","NORAD_CAT_ID":"46785","MEAN_MOTION_DDOT":"0.0000000000000"},{"MEAN_ELEMENT_THEORY":"SGP4","PERIOD":"95.593","ARG_OF_PERICENTER":"67.8223","OBJECT_ID":"2020-074AZ","MEAN_MOTION":"15.06392715","ECCENTRICITY":"0.00015420","APOAPSIS":"548.304","TLE_LINE2":"2 46786  53.0552 221.8752 0001542  67.8223 292.2929 15.06392715 81878","EPOCH":"2022-04-11T18:04:34.207680","CLASSIFICATION_TYPE":"U","MEAN_MOTION_DOT":"0.00001160","LAUNCH_DATE":"2020-10-24","REV_AT_EPOCH":"8187","RCS_SIZE":"LARGE","OBJECT_NAME":"STARLINK-1893","DECAY_DATE":null,"FILE":"3397723","MEAN_ANOMALY":"292.2929","INCLINATION":"53.0552","COUNTRY_CODE":"US","SEMIMAJOR_AXIS":"6925.371","PERIAPSIS":"546.168","TLE_LINE1":"1 46786U 20074AZ  22101.75317370  .00001160  00000-0  96794-4 0  9990","REF_FRAME":"TEME","SITE":"AFETR","GP_ID":"201015767","CENTER_NAME":"EARTH","RA_OF_ASC_NODE":"221.8752","TIME_SYSTEM":"UTC","ELEMENT_SET_NO":"999","MEAN_MOTION_DDOT":"0.0000000000000","NORAD_CAT_ID":"46786","BSTAR":"0.00009679400000","EPHEMERIS_TYPE":"0","OBJECT_TYPE":"PAYLOAD"},{"CENTER_NAME":"EARTH","GP_ID":"201016017","REF_FRAME":"TEME","SITE":"AFETR","TLE_LINE1":"1 46787U 20074BA  22101.74580575  .00000191  00000-0  31723-4 0  9993","PERIAPSIS":"546.211","SEMIMAJOR_AXIS":"6925.394","MEAN_ANOMALY":"293.0399","INCLINATION":"53.0553","COUNTRY_CODE":"US","DECAY_DATE":null,"FILE":"3397723","EPHEMERIS_TYPE":"0","OBJECT_TYPE":"PAYLOAD","BSTAR":"0.00003172300000","ELEMENT_SET_NO":"999","TIME_SYSTEM":"UTC","NORAD_CAT_ID":"46787","MEAN_MOTION_DDOT":"0.0000000000000","RA_OF_ASC_NODE":"221.8975","EPOCH":"2022-04-11T17:53:57.616800","TLE_LINE2":"2 46787  53.0553 221.8975 0001513  67.0749 293.0399 15.06385093 81871","ECCENTRICITY":"0.00015130","APOAPSIS":"548.307","MEAN_MOTION":"15.06385093","PERIOD":"95.593","MEAN_ELEMENT_THEORY":"SGP4","OBJECT_ID":"2020-074BA","ARG_OF_PERICENTER":"67.0749","RCS_SIZE":"LARGE","OBJECT_NAME":"STARLINK-1899","REV_AT_EPOCH":"8187","LAUNCH_DATE":"2020-10-24","CLASSIFICATION_TYPE":"U","MEAN_MOTION_DOT":"0.00000191"}];
